<!DOCTYPE html PUBLIC "-//W3C//DTD XHTML 1.0 Strict//EN" "http://www.w3.org/TR/xhtml1/DTD/xhtml1-strict.dtd">
<html xmlns="http://www.w3.org/1999/xhtml">
<head>
<meta http-equiv="Content-Type" content="text/html; charset=iso-8859-1"/>
<title>404 - File Not Found.</title>
<style type="text/css">
<!--
body{margin:0;font-size:.7em;font-family:Verdana, Arial, Helvetica, sans-serif;background:#EEEEEE;}
fieldset{padding:0 15px 10px 15px;}
h1{font-size:2.4em;margin:0;color:#FFF;}
h2{font-size:1.7em;margin:0;color:#CC0000;}
h3{font-size:1.2em;margin:10px 0 0 0;color:#000000;}
#header{width:96%;margin:0 0 0 0;padding:6px 2% 6px 2%;font-family:"trebuchet MS", Verdana, sans-serif;color:#FFF;
background-color:#555555;}
#content{margin:0 0 0 2%;position:relative;}
.content-container{background:#FFF;width:96%;margin-top:8px;padding:10px;position:relative;}
-->
</style>
</head>
<body>
<div id="header"><h1>Server Error</h1></div>
<div id="content">
 <div class="content-container"><fieldset>
  <h2>404 - File Not Found.</h2>
  <h3>File not found for celestrak.org/NORAD/elements/active.txt.</h3>
  <h3>Please contact <a href="mailto:ts.kelso@celestrak.org">ts.kelso@celestrak.org</a> if you have other questions.</h3>
 </fieldset></div>
</div>
</body>
</html>
GSAT0208 (GALILEO 11)   
1 41175U 15079B   23363.26642888  .00000005  00000+0  00000+0 0  9994
2 41175  55.3494 126.0112 0001351 315.4078  44.5338  1.70474606 49837
GPS BIIF-12             
1 41328U 16007A   23363.42913336  .00000003  00000+0  00000+0 0  9991
2 41328  55.0606 125.2376 0075064 234.5945 124.6712  2.00570192 57777
GSAT0211 (GALILEO 14)   
1 41549U 16030A   23363.38871091  .00000023  00000+0  00000+0 0  9990
2 41549  55.4423 246.4798 0005167  31.1403 328.9843  1.70473172 47313
GSAT0210 (GALILEO 13)   
1 41550U 16030B   23363.67993809  .00000023  00000+0  00000+0 0  9996
2 41550  55.4458 246.4730 0002298 335.5023  24.5802  1.70473549 47299
INSAT-3DR               
1 41752U 16054A   23363.87271803 -.00000067  00000+0  00000+0 0  9990
2 41752   0.0471  92.5523 0014402 179.7721 213.9091  1.00272317 26796
GSAT0207 (GALILEO 15)   
1 41859U 16069A   23363.34052465  .00000005  00000+0  00000+0 0  9998
2 41859  55.0148 126.0545 0002273 287.9413  71.9866  1.70474612 44044
GSAT0212 (GALILEO 16)   
1 41860U 16069B   23363.78161576  .00000008  00000+0  00000+0 0  9995
2 41860  55.0108 126.0386 0001127   0.3308 359.6246  1.70474903 44302
GSAT0213 (GALILEO 17)   
1 41861U 16069C   23362.97543854  .00000003  00000+0  00000+0 0  9994
2 41861  55.0141 126.0675 0002819 254.4791 105.4405  1.70473502 44159
GSAT0214 (GALILEO 18)   
1 41862U 16069D   23363.12227971  .00000004  00000+0  00000+0 0  9993
2 41862  55.0133 126.0574 0001935 250.1253 109.8054  1.70475006 44286
GOES 16                 
1 41866U 16071A   23364.09146595 -.00000238  00000+0  00000+0 0  9999
2 41866   0.0825 252.6572 0001414  57.6866 105.6360  1.00271010 26077
GSAT-17                 
1 42815U 17040B   23363.88243663 -.00000248  00000+0  00000+0 0  9992
2 42815   0.0390  90.8303 0006747 175.2658 243.1376  1.00270382 23762
GSAT0215 (GALILEO 19)   
1 43055U 17079A   23363.02491544  .00000024  00000+0  00000+0 0  9991
2 43055  55.4234 246.3142 0001683 340.5581  19.5302  1.70473920 37629
GSAT0216 (GALILEO 20)   
1 43056U 17079B   23363.31671239  .00000024  00000+0  00000+0 0  9995
2 43056  55.4236 246.3060 0003576 305.8891  54.1720  1.70474128 37611
GSAT0217 (GALILEO 21)   
1 43057U 17079C   23363.53716728  .00000023  00000+0  00000+0 0  9992
2 43057  55.4216 246.2989 0003083 347.2405  12.8455  1.70474012 37633
GSAT0218 (GALILEO 22)   
1 43058U 17079D   23359.06447463  .00000025  00000+0  00000+0 0  9995
2 43058  55.4236 246.4196 0003575 301.5098  58.5411  1.70473918 37559
GOES 17                 
1 43226U 18022A   23363.85893958 -.00000081  00000+0  00000+0 0  9990
2 43226   0.0117 135.1224 0002027 127.8638  39.5914  1.00272187 21396
GSAT0221 (GALILEO 25)   
1 43564U 18060A   23362.48350626 -.00000088  00000+0  00000+0 0  9992
2 43564  57.2969   6.0933 0005938 279.2910  80.6657  1.70475907 33792
GSAT0222 (GALILEO 26)   
1 43565U 18060B   23362.11516974 -.00000089  00000+0  00000+0 0  9994
2 43565  57.3007   6.1048 0005127 257.3887 102.5786  1.70475659 33831
GSAT0219 (GALILEO 23)   
1 43566U 18060C   23364.09708457 -.00000084  00000+0  00000+0 0  9998
2 43566  57.2998   6.0533 0005169 286.3015  73.6631  1.70475955 33846
GSAT0220 (GALILEO 24)   
1 43567U 18060D   23362.55783463 -.00000088  00000+0  00000+0 0  9992
2 43567  57.3018   6.0948 0005458 282.2576  77.7050  1.70475980 33803
BEIDOU-3 M13            
1 43622U 18072A   23363.52732707 -.00000034  00000+0  00000+0 0  9991
2 43622  55.8591  92.5799 0006340 282.7274  77.2173  1.86231197 35887
BEIDOU-3 M14            
1 43623U 18072B   23363.39277990 -.00000035  00000+0  00000+0 0  9996
2 43623  55.8610  92.5772 0003542 306.7133  53.2690  1.86231203 35878
GPS BIII-1              
1 43873U 18109A   23363.58178832  .00000008  00000+0  00000+0 0  9999
2 43873  55.2341 127.7710 0028057 191.1917 173.2960  2.00572571 37011
METEOR-M2 2             
1 44387U 19038A   23364.09465882  .00000060  00000+0  45767-4 0  9995
2 44387  98.8045 327.8711 0002333  89.5187 270.6259 14.23837757233185
GPS BIII-2              
1 44506U 19056A   23363.46863634 -.00000093  00000+0  00000+0 0  9998
2 44506  55.8355   6.8402 0038725 190.5221 349.6217  2.00568465 32000
BEIDOU-3 M23            
1 44542U 19061A   23363.23408255  .00000053  00000+0  00000+0 0  9998
2 44542  54.4654 213.1384 0008809  10.4237 349.6652  1.86231513 29010
BEIDOU-3 M24            
1 44543U 19061B   23364.17566236  .00000050  00000+0  00000+0 0  9994
2 44543  54.4637 213.0757 0005581   8.9296 174.4747  1.86231968 29020
BEIDOU-3 M21            
1 44793U 19078A   23364.15339509 -.00000093  00000+0  00000+0 0  9996
2 44793  54.6843 331.2617 0006314   6.0799 353.9198  1.86232157 27896
BEIDOU-3 M22            
1 44794U 19078B   23363.20975511 -.00000097  00000+0  00000+0 0  9995
2 44794  54.6586 331.2741 0004472 353.7360   6.2481  1.86232650 27877
ELEKTRO-L 3             
1 44903U 19095A   23363.87271803 -.00000087  00000+0  00000+0 0  9991
2 44903   0.0615 171.5354 0001121 101.2646 215.4485  1.00271901 14684
GPS BIII-3              
1 45854U 20041A   23363.80257593 -.00000059  00000+0  00000+0 0  9992
2 45854  55.9798  64.1303 0039733 191.5826 171.2464  2.00560872 25984
COSMOS 2547             
1 46805U 20075A   23362.96455989  .00000058  00000+0  00000+0 0  9999
2 46805  64.6057 222.6202 0005512 237.1648 122.8664  2.13102959 24707
GPS BIII-4              
1 46826U 20078A   23364.08523538  .00000011  00000+0  00000+0 0  9995
2 46826  54.2533 247.3217 0038447 193.6224 349.8109  2.00562445 23444
GSAT0223 (GALILEO 27)   
1 49809U 21116A   23364.16061196 -.00000084  00000+0  00000+0 0  9990
2 49809  57.2910   5.9470 0003503 245.7871 108.1847  1.70476134 12832
GSAT0224 (GALILEO 28)   
1 49810U 21116B   23363.68307319 -.00000086  00000+0  00000+0 0  9990
2 49810  57.2920   5.9581 0002868 252.6767 280.7101  1.70476116 12854
GOES 18                 
1 51850U 22021A   23364.09090330  .00000107  00000+0  00000+0 0  9994
2 51850   0.0402 213.8173 0000564  35.2691 104.9073  1.00271937  6788
CRE (WAAS/PRN 138)      
1 28868U 05036A   23363.88189863 -.00000065  00000+0  00000+0 0  9994
2 28868   1.9929  87.6884 0001609 208.8513  11.7040  1.00272474 67135
IOR-W (EGNOS/PRN 126)   
1 28899U 05044A   23363.93313230 -.00000253  00000+0  00000+0 0  9999
2 28899   4.0039  41.7121 0002415 246.9375 288.7638  1.00272400 66491
QZS-1 (QZSS/PRN 183)    
1 37158U 10045A   23362.43122154 -.00000012  00000+0  00000+0 0  9994
2 37158  43.0296 126.3740 0003499 126.6477  57.5213  0.87715441 48485
GSAT-8 (GAGAN/PRN 127)  
1 37605U 11022A   23364.12910630  .00000095  00000+0  00000+0 0  9999
2 37605   0.0352 102.5664 0008883 168.6457 288.6345  1.00271842 46215
LUCH 5A (SDCM/PRN 140)  
1 37951U 11074B   23363.65400080 -.00000043  00000+0  00000+0 0  9994
2 37951   6.4447  87.7558 0003369 180.4831 231.8710  1.00271530 44029
SES-5 (EGNOS/PRN 136)   
1 38652U 12036A   23363.89563032  .00000044  00000+0  00000+0 0  9995
2 38652   0.0307 329.6857 0002313 303.5456 152.2432  1.00274288 42042
GSAT-10 (GAGAN/PRN 128) 
1 38779U 12051B   23364.13467576 -.00000154  00000+0  00000+0 0  9999
2 38779   0.0544 270.8375 0005180 354.3290 324.6336  1.00271330 41268
LUCH 5B (SDCM/PRN 125)  
1 38977U 12061A   23363.88768662 -.00000130  00000+0  00000+0 0  9995
2 38977   8.5139  58.1729 0003822 174.6607 168.4679  1.00273235 40581
ASTRA 5B (EGNOS/PRN 123)
1 39617U 14011B   23363.88729894  .00000147  00000+0  00000+0 0  9995
2 39617   0.0556 319.1787 0004402 311.9840 169.8161  1.00273133 35646
LUCH 5V (SDCM/PRN 141)  
1 39727U 14023A   23363.85048341 -.00000261  00000+0  00000+0 0  9996
2 39727   2.8723  76.9084 0004012 212.3870 209.6044  1.00274770 35333
GSAT-15 (GAGAN/PRN 139) 
1 41028U 15065A   23363.85585791 -.00000248  00000+0  00000+0 0  9990
2 41028   0.0347 268.0151 0002389 339.4624 252.1689  1.00270476 29772
E 117 W B (WAAS/PRN 131)
1 41589U 16038B   23363.41090962 -.00000002  00000+0  00000+0 0  9994
2 41589   0.0104 163.9357 0000660 318.6700   5.9352  1.00272911 27630
SES-15 (WAAS/PRN 133)   
1 42709U 17026A   23363.73387292  .00000070  00000+0  00000+0 0  9991
2 42709   0.0209  28.9831 0001029 192.4524  11.5254  1.00273927 25113
QZS-2 (QZSS/PRN 184)    
1 42738U 17028A   23363.57151748 -.00000159  00000+0  00000+0 0  9991
2 42738  40.8495 256.2035 0756514 269.6013 279.0838  1.00281376 24106
QZS-3 (QZSS/PRN 189)    
1 42917U 17048A   23363.90813212 -.00000338  00000+0  00000+0 0  9999
2 42917   0.0838 136.8867 0001921 152.0300 263.1447  1.00269734 23236
